NORAD_CAT_ID,OBJECT_NAME,OBJECT_TYPE,EPOCH,MEAN_MOTION,ECCENTRICITY,INCLINATION,RA_OF_ASC_NODE,ARG_OF_PERICENTER,MEAN_ANOMALY,BSTAR,MEAN_MOTION_DOT,MEAN_MOTION_DDOT,TLE_LINE0,TLE_LINE1,TLE_LINE2,SEMIMAJOR_AXIS,PERIOD,APOGEE,PERIGEE,DECAYED
52488.0,STARLINK-3892,PAYLOAD,2023-04-19 09:49:10,15.08838805,0.0001243,53.2152,116.4567,88.1938,271.9197,7.4783e-05,9.02e-06,0.0,0 STARLINK-3892,1 52488U 22049AP  23109.40914848  .00000902  00000-0  74783-4 0  9991,2 52488  53.2152 116.4567 0001243  88.1938 271.9197 15.08838805 52946,6917.884,95.438,540.609,538.889,0.0
52488.0,STARLINK-3892,PAYLOAD,2023-04-19 17:46:04,15.08853574,0.0001099,53.216,114.9695,94.0774,266.0344,0.00017935,2.569e-05,0.0,0 STARLINK-3892,1 52488U 22049AP  23109.74033333  .00002569  00000-0  17935-3 0  9995,2 52488  53.2160 114.9695 0001099  94.0774 266.0344 15.08853574 52997,6917.839,95.437,540.464,538.944,0.0
52488.0,STARLINK-3892,PAYLOAD,2023-04-20 06:29:08,15.08865892,9.93e-05,53.216,112.5911,87.1606,272.95,0.00023335,3.43e-05,0.0,0 STARLINK-3892,1 52488U 22049AP  23110.27023773  .00003430  00000-0  23335-3 0  9991,2 52488  53.2160 112.5911 0000993  87.1606 272.9500 15.08865892 53077,6917.801,95.436,540.353,538.979,0.0
52488.0,STARLINK-3892,PAYLOAD,2023-04-20 17:36:51,15.08853001,0.0001312,53.2167,110.5107,80.1244,279.9896,0.00013931,1.931e-05,0.0,0 STARLINK-3892,1 52488U 22049AP  23110.73392428  .00001931  00000-0  13931-3 0  9993,2 52488  53.2167 110.5107 0001312  80.1244 279.9896 15.08853001 53148,6917.841,95.437,540.613,538.798,0.0
52488.0,STARLINK-3892,PAYLOAD,2023-04-21 06:19:58,15.08819392,0.000106,53.2172,108.1314,94.9163,265.195,-9.4499e-05,-1.79e-05,0.0,0 STARLINK-3892,1 52488U 22049AP  23111.26387308 -.00001790  00000-0 -94499-4 0  9997,2 52488  53.2172 108.1314 0001060  94.9163 265.1950 15.08819392 53222,6917.943,95.439,540.542,539.075,0.0
52488.0,STARLINK-3892,PAYLOAD,2023-04-21 09:30:44,15.08823592,0.0001118,53.2163,107.5356,93.9941,266.1179,-7.9151e-05,-1.547e-05,0.0,0 STARLINK-3892,1 52488U 22049AP  23111.39635107 -.00001547  00000-0 -79151-4 0  9992,2 52488  53.2163 107.5356 0001118  93.9941 266.1179 15.08823592 53241,6917.931,95.439,540.569,539.022,0.0
52488.0,STARLINK-3892,PAYLOAD,2023-04-23 07:36:55,15.08829474,0.0001374,53.2162,98.9119,105.3193,254.7951,0.00017672,2.525e-05,0.0,0 STARLINK-3892,1 52488U 22049AP  23113.31730742  .00002525  00000-0  17672-3 0  9991,2 52488  53.2162  98.9119 0001374 105.3193 254.7951 15.08829474 53696,6917.913,95.438,540.728,538.827,0.0
52488.0,STARLINK-3892,PAYLOAD,2023-04-24 09:03:05,15.08845172,0.0001479,53.217,94.1535,94.7878,265.3283,0.0001784,2.553e-05,0.0,0 STARLINK-3892,1 52488U 22049AP  23114.37714593  .00002553  00000-0  17840-3 0  9992,2 52488  53.2170  94.1535 0001479  94.7878 265.3283 15.08845172 53691,6917.865,95.437,540.753,538.706,0.0
52488.0,STARLINK-3892,PAYLOAD,2023-04-25 04:07:44,15.08830459,0.0001492,53.2171,90.5843,91.3903,268.726,-5.5565e-05,-1.172e-05,0.0,0 STARLINK-3892,1 52488U 22049AP  23115.17204413 -.00001172  00000-0 -55565-4 0  9991,2 52488  53.2171  90.5843 0001492  91.3903 268.7260 15.08830459 53976,6917.91,95.438,540.807,538.742,0.0
52488.0,STARLINK-3892,PAYLOAD,2023-04-25 10:29:17,15.08830676,0.0001446,53.2171,89.3948,89.6987,270.4171,-6.1034e-05,-1.259e-05,0.0,0 STARLINK-3892,1 52488U 22049AP  23115.43700500 -.00001259  00000-0 -61034-4 0  9992,2 52488  53.2171  89.3948 0001446  89.6987 270.4171 15.08830676 53858,6917.909,95.438,540.774,538.774,0.0
52488.0,STARLINK-3892,PAYLOAD,2023-04-26 07:09:17,15.08833594,0.0001453,53.2168,85.529,88.337,271.7789,6.2555e-05,7.08e-06,0.0,0 STARLINK-3892,1 52488U 22049AP  23116.29812242  .00000708  00000-0  62555-4 0  9999,2 52488  53.2168  85.5290 0001453  88.3370 271.7789 15.08833594 53987,6917.9,95.438,540.77,538.76,0.0
52488.0,STARLINK-3892,PAYLOAD,2023-04-26 15:06:12,15.08843252,0.0001446,53.2165,84.0422,93.3153,266.8004,8.5588e-05,1.075e-05,0.0,0 STARLINK-3892,1 52488U 22049AP  23116.62931554  .00001075  00000-0  85588-4 0  9993,2 52488  53.2165  84.0422 0001446  93.3153 266.8004 15.08843252 54036,6917.87,95.437,540.736,538.735,0.0
52488.0,STARLINK-3892,PAYLOAD,2023-04-27 03:49:17,15.08849629,0.0001303,53.2166,81.6651,86.5759,273.5382,0.0002165,3.16e-05,0.0,0 STARLINK-3892,1 52488U 22049AP  23117.15922610  .00003160  00000-0  21650-3 0  9991,2 52488  53.2166  81.6651 0001303  86.5759 273.5382 15.08849629 54276,6917.851,95.437,540.617,538.815,0.0
52488.0,STARLINK-3892,PAYLOAD,2023-04-27 07:00:03,15.08852317,0.0001356,53.2168,81.0699,87.1059,273.0089,0.00023911,3.521e-05,0.0,0 STARLINK-3892,1 52488U 22049AP  23117.29170326  .00003521  00000-0  23911-3 0  9998,2 52488  53.2168  81.0699 0001356  87.1059 273.0089 15.08852317 54134,6917.843,95.437,540.646,538.77,0.0
52488.0,STARLINK-3892,PAYLOAD,2023-04-27 21:18:32,15.08840184,0.0001517,53.2167,78.3939,82.6824,277.434,8.8254e-05,1.117e-05,0.0,0 STARLINK-3892,1 52488U 22049AP  23117.88787589  .00001117  00000-0  88254-4 0  9999,2 52488  53.2167  78.3939 0001517  82.6824 277.4340 15.08840184 54382,6917.88,95.438,540.794,538.695,0.0
52488.0,STARLINK-3892,PAYLOAD,2023-04-28 06:50:51,15.08844234,0.0001373,53.217,76.6082,89.6148,270.5001,1.5371e-05,-4.3e-07,0.0,0 STARLINK-3892,1 52488U 22049AP  23118.28531468 -.00000043  00000-0  15371-4 0  9995,2 52488  53.2170  76.6082 0001373  89.6148 270.5001 15.08844234 54289,6917.867,95.437,540.682,538.783,0.0
52488.0,STARLINK-3892,PAYLOAD,2023-04-29 03:30:51,15.08846095,0.0001429,53.2174,72.7437,88.3104,271.8052,-7.674e-05,-1.509e-05,0.0,0 STARLINK-3892,1 52488U 22049AP  23119.14643347 -.00001509  00000-0 -76740-4 0  9997,2 52488  53.2174  72.7437 0001429  88.3104 271.8052 15.08846095 54573,6917.862,95.437,540.715,538.738,0.0
52488.0,STARLINK-3892,PAYLOAD,2023-04-29 06:41:37,15.08848789,0.0001425,53.2173,72.1487,89.4318,270.6838,-9.4997e-05,-1.8e-05,0.0,0 STARLINK-3892,1 52488U 22049AP  23119.27891175 -.00001800  00000-0 -94997-4 0  9993,2 52488  53.2173  72.1487 0001425  89.4318 270.6838 15.08848789 54432,6917.854,95.437,540.704,538.733,0.0
52488.0,STARLINK-3892,PAYLOAD,2023-04-30 06:32:24,15.08843597,0.0001448,53.2176,67.6884,86.1701,273.9457,7.4756e-05,9.02e-06,0.0,0 STARLINK-3892,1 52488U 22049AP  23120.27251041  .00000902  00000-0  74756-4 0  9998,2 52488  53.2176  67.6884 0001448  86.1701 273.9457 15.08843597 54749,6917.869,95.437,540.736,538.733,0.0
52488.0,STARLINK-3892,PAYLOAD,2023-05-01 03:12:26,15.08833459,0.0001404,53.2176,63.8217,99.1352,260.9799,2.6756e-07,-2.84e-06,0.0,0 STARLINK-3892,1 52488U 22049AP  23121.13364233 -.00000284  00000-0  26756-6 0  9995,2 52488  53.2176  63.8217 0001404  99.1352 260.9799 15.08833459 54870,6917.9,95.438,540.737,538.794,0.0
52488.0,STARLINK-3892,PAYLOAD,2023-05-02 04:38:36,15.08842636,0.0001271,53.2175,59.066,93.0833,267.0305,5.7042e-05,6.2e-06,0.0,0 STARLINK-3892,1 52488U 22049AP  23122.19347860  .00000620  00000-0  57042-4 0  9992,2 52488  53.2175  59.0660 0001271  93.0833 267.0305 15.08842636 55034,6917.872,95.437,540.617,538.858,0.0
52488.0,STARLINK-3892,PAYLOAD,2023-05-02 18:57:05,15.08835131,0.0001306,53.2179,56.3903,96.0785,264.0355,0.00011636,1.564e-05,0.0,0 STARLINK-3892,1 52488U 22049AP  23122.78964245  .00001564  00000-0  11636-3 0  9995,2 52488  53.2179  56.3903 0001306  96.0785 264.0355 15.08835131 55120,6917.895,95.438,540.664,538.857,0.0
52488.0,STARLINK-3892,PAYLOAD,2023-05-02 20:32:28,15.08836612,0.000129,53.2182,56.0918,99.8698,260.2439,7.1935e-05,8.57e-06,0.0,0 STARLINK-3892,1 52488U 22049AP  23122.85588341  .00000857  00000-0  71935-4 0  9995,2 52488  53.2182  56.0918 0001290  99.8698 260.2439 15.08836612 54971,6917.891,95.438,540.648,538.863,0.0
52488.0,STARLINK-3892,PAYLOAD,2023-05-03 02:54:00,15.08838488,0.0001297,53.2183,54.9024,101.4064,258.7074,8.0714e-05,9.97e-06,0.0,0 STARLINK-3892,1 52488U 22049AP  23123.12084247  .00000997  00000-0  80714-4 0  9992,2 52488  53.2183  54.9024 0001297 101.4064 258.7074 15.08838488 55017,6917.885,95.438,540.647,538.853,0.0
52488.0,STARLINK-3892,PAYLOAD,2023-05-03 18:47:52,15.08839598,0.0001244,53.2184,51.9291,98.8564,261.2569,2.1373e-05,5.2e-07,0.0,0 STARLINK-3892,1 52488U 22049AP  23123.78324525  .00000052  00000-0  21373-4 0  9998,2 52488  53.2184  51.9291 0001244  98.8564 261.2569 15.08839598 55119,6917.882,95.438,540.607,538.886,0.0
52488.0,STARLINK-3892,PAYLOAD,2023-05-04 04:20:10,15.08842929,0.0001235,53.2185,50.1448,95.6991,264.4142,4.0886e-05,3.63e-06,0.0,0 STARLINK-3892,1 52488U 22049AP  23124.18068256  .00000363  00000-0  40886-4 0  9994,2 52488  53.2185  50.1448 0001235  95.6991 264.4142 15.08842929 55332,6917.871,95.437,540.591,538.882,0.0
52488.0,STARLINK-3892,PAYLOAD,2023-05-04 18:38:39,15.08841292,0.0001243,53.2187,47.4683,92.8156,267.2978,4.8557e-05,4.85e-06,0.0,0 STARLINK-3892,1 52488U 22049AP  23124.77684330  .00000485  00000-0  48557-4 0  9994,2 52488  53.2187  47.4683 0001243  92.8156 267.2978 15.08841292 55267,6917.876,95.437,540.601,538.882,0.0
52488.0,STARLINK-3892,PAYLOAD,2023-05-05 04:10:57,15.08852561,0.0001353,53.2187,45.6841,92.1807,267.934,0.00013695,1.893e-05,0.0,0 STARLINK-3892,1 52488U 22049AP  23125.17427245  .00001893  00000-0  13695-3 0  9997,2 52488  53.2187  45.6841 0001353  92.1807 267.9340 15.08852561 55486,6917.842,95.437,540.643,538.771,0.0
52488.0,STARLINK-3892,PAYLOAD,2023-05-06 00:50:59,15.08837503,0.0001387,53.219,41.8178,89.0622,271.0529,-1.3166e-06,-3.09e-06,0.0,0 STARLINK-3892,1 52488U 22049AP  23126.03540705 -.00000309  00000-0 -13166-5 0  9998,2 52488  53.2190  41.8178 0001387  89.0622 271.0529 15.08837503 55617,6917.888,95.438,540.713,538.794,0.0
52488.0,STARLINK-3892,PAYLOAD,2023-05-06 04:01:45,15.0884127,0.0001355,53.2183,41.2238,86.4792,273.6355,5.3771e-05,5.68e-06,0.0,0 STARLINK-3892,1 52488U 22049AP  23126.16788407  .00000568  00000-0  53771-4 0  9995,2 52488  53.2183  41.2238 0001355  86.4792 273.6355 15.08841270 55479,6917.877,95.437,540.679,538.804,0.0
